[Satellite]
VERSION=1.1
NAME=IRIDIUM 3 [+]
NICKNAME=IRIDIUM 3 [+]
TLE1=1 25431U 98048A   17186.26347508  .00000109  00000-0  31837-4 0  9998
TLE2=2 25431  86.3965 248.1390 0002194  90.4490 311.3743 14.34220061987934
